ONEWEB-0350             
1 49214U 21083AE  25164.57349480 -.00000225  00000+0 -64978-3 0  9999
2 49214  87.8971  33.4720 0002074  75.9657 284.1702 13.13468944182540
ONEWEB-0351             
1 49215U 21083AF  25164.55088436 -.00000235  00000+0 -60897-3 0  9996
2 49215  87.9254 347.8510 0002487 105.1007 255.0402 13.20771290188110
ONEWEB-0352             
1 49216U 21083AG  25164.63019936  .00000265  00000+0  69138-3 0  9993
2 49216  87.8977  33.5018 0002102  92.5344 267.6026 13.13471063182641
ONEWEB-0354             
1 49217U 21083AH  25164.50052538 -.00000030  00000+0 -10534-3 0  9993
2 49217  87.9258 347.8591 0002013  82.7184 277.4178 13.20772495188145
ONEWEB-0355             
1 49218U 21083AJ  25164.58293543 -.00000344  00000+0 -97591-3 0  9991
2 49218  87.8975  33.5095 0002035  83.3053 276.8307 13.13471274182510
ONEWEB-0357             
1 49219U 21083AK  25164.49736821  .00000024  00000+0  25922-4 0  9996
2 49219  87.9259 347.8665 0002020  91.8325 268.3039 13.20772511188140
ONEWEB-0332             
1 49279U 21090A   25164.58018802 -.00000218  00000+0 -62199-3 0  9995
2 49279  87.9032   3.0542 0001829  96.5341 263.5996 13.14501093179154
ONEWEB-0347             
1 49280U 21090B   25164.48790846 -.00000064  00000+0 -18856-3 0  9991
2 49280  87.9256 347.8760 0001591  99.8890 260.2423 13.20772353182379
